$$SOE
2460721.500000000, A.D. 2025-Feb-15 00:00:00.0000, -3.688325736216440E+08, 7.604790598200192E+07, -7.872109493996926E+06,
2460728.500000000, A.D. 2025-Feb-22 00:00:00.0000, -3.718173406067743E+08, 6.569309224213073E+07, -8.048485461962719E+06,
2460735.500000000, A.D. 2025-Mar-01 00:00:00.0000, -3.744670012227705E+08, 5.527903089205119E+07, -8.217607830890415E+06,
2460742.500000000, A.D. 2025-Mar-08 00:00:00.0000, -3.767817051900083E+08, 4.481548210255096E+07, -8.379380201226190E+06,
2460749.500000000, A.D. 2025-Mar-15 00:00:00.0000, -3.787618117551808E+08, 3.431209578206807E+07, -8.533712263767630E+06,
2460756.500000000, A.D. 2025-Mar-22 00:00:00.0000, -3.804078845638940E+08, 2.377841291976281E+07, -8.680519375460723E+06,
2460763.500000000, A.D. 2025-Mar-29 00:00:00.0000, -3.817206856194745E+08, 1.322386490786226E+07, -8.819722452020813E+06,
2460770.500000000, A.D. 2025-Apr-05 00:00:00.0000, -3.827011679844180E+08, 2.657773948551179E+06, -8.951247949857652E+06,
2460777.500000000, A.D. 2025-Apr-12 00:00:00.0000, -3.833504691382010E+08, -7.910645386724515E+06, -9.075027752237609E+06,
2460784.500000000, A.D. 2025-Apr-19 00:00:00.0000, -3.836699051770599E+08, -1.847228435801335E+07, -9.190999015988242E+06,
2460791.500000000, A.D. 2025-Apr-26 00:00:00.0000, -3.836609655839669E+08, -2.901813824274155E+07, -9.299104021694882E+06,
2460798.500000000, A.D. 2025-May-03 00:00:00.0000, -3.833253084498383E+08, -3.953930450460644E+07, -9.399290036937159E+06,
2460805.500000000, A.D. 2025-May-10 00:00:00.0000, -3.826647561074678E+08, -5.002698095298951E+07, -9.491509194603913E+06,
2460812.500000000, A.D. 2025-May-17 00:00:00.0000, -3.816812911293995E+08, -6.047246395049480E+07, -9.575718392874885E+06,
2460819.500000000, A.D. 2025-May-24 00:00:00.0000, -3.803770525033990E+08, -7.086714673984151E+07, -9.651879237055559E+06,
2460826.500000000, A.D. 2025-May-31 00:00:00.0000, -3.787543315555903E+08, -8.120251759551315E+07, -9.719958035926986E+06,
2460833.500000000, A.D. 2025-Jun-07 00:00:00.0000, -3.768155680101565E+08, -9.147015661119947E+07, -9.779925717125863E+06,
2460840.500000000, A.D. 2025-Jun-14 00:00:00.0000, -3.745633485390581E+08, -1.016617318059258E+08, -9.831757499096923E+06,
2460847.500000000, A.D. 2025-Jun-21 00:00:00.0000, -3.720004065774628E+08, -1.117689978361482E+08, -9.875432698786214E+06,
2460854.500000000, A.D. 2025-Jun-28 00:00:00.0000, -3.691296202703968E+08, -1.217837955619660E+08, -9.910934817751706E+06,
2460861.500000000, A.D. 2025-Jul-05 00:00:00.0000, -3.659540100573136E+08, -1.316980503214405E+08, -9.938251590777941E+06,
2460868.500000000, A.D. 2025-Jul-12 00:00:00.0000, -3.624767370741673E+08, -1.415037697304323E+08, -9.957374953165933E+06,
2460875.500000000, A.D. 2025-Jul-19 00:00:00.0000, -3.587011021750782E+08, -1.511930415967069E+08, -9.968300991168015E+06,
2460882.500000000, A.D. 2025-Jul-26 00:00:00.0000, -3.546305453578576E+08, -1.607580320174583E+08, -9.971029899570055E+06,
2460889.500000000, A.D. 2025-Aug-02 00:00:00.0000, -3.502686455221164E+08, -1.701909836495948E+08, -9.965565950519957E+06,
2460896.500000000, A.D. 2025-Aug-09 00:00:00.0000, -3.456191205299140E+08, -1.794842141779508E+08, -9.951917476673268E+06,
2460903.500000000, A.D. 2025-Aug-16 00:00:00.0000, -3.406858274853076E+08, -1.886301150553194E+08, -9.930096880601391E+06,
2460910.500000000, A.D. 2025-Aug-23 00:00:00.0000, -3.354727629338195E+08, -1.976211505086013E+08, -9.900120695676327E+06,
2460917.500000000, A.D. 2025-Aug-30 00:00:00.0000, -3.299840626466491E+08, -2.064498561076637E+08, -9.862009669937685E+06,
2460924.500000000, A.D. 2025-Sep-06 00:00:00.0000, -3.242240024009672E+08, -2.151088359072496E+08, -9.815788660801619E+06,
2460931.500000000, A.D. 2025-Sep-13 00:00:00.0000, -3.181970014204432E+08, -2.235907606568125E+08, -9.761486390151605E+06,
2460938.500000000, A.D. 2025-Sep-20 00:00:00.0000, -3.119076251988498E+08, -2.318883687363730E+08, -9.699135494480342E+06,
2460945.500000000, A.D. 2025-Sep-27 00:00:00.0000, -3.053605866453170E+08, -2.399944667190628E+08, -9.628772712684885E+06,
2460952.500000000, A.D. 2025-Oct-04 00:00:00.0000, -2.985607475626667E+08, -2.479019290314841E+08, -9.550438982007787E+06,
2460959.500000000, A.D. 2025-Oct-11 00:00:00.0000, -2.915131208252407E+08, -2.556036976660584E+08, -9.464179484628156E+06,
2460966.500000000, A.D. 2025-Oct-18 00:00:00.0000, -2.842228729655276E+08, -2.630927822334214E+08, -9.370043693461657E+06,
2460973.500000000, A.D. 2025-Oct-25 00:00:00.0000, -2.766953270247039E+08, -2.703622603591959E+08, -9.268085429396600E+06,
2460980.500000000, A.D. 2025-Nov-01 00:00:00.0000, -2.689359656232131E+08, -2.774052784251254E+08, -9.158362932589218E+06,
2460987.500000000, A.D. 2025-Nov-08 00:00:00.0000, -2.609504342120751E+08, -2.842150527014191E+08, -9.040938953754291E+06,
2460994.500000000, A.D. 2025-Nov-15 00:00:00.0000, -2.527445443518448E+08, -2.907848709447833E+08, -8.915880884011462E+06,
2461001.500000000, A.D. 2025-Nov-22 00:00:00.0000, -2.443242766112748E+08, -2.971080942581806E+08, -8.783260942398578E+06,
2461008.500000000, A.D. 2025-Nov-29 00:00:00.0000, -2.356957832329931E+08, -3.031781580923625E+08, -8.643156314207107E+06,
2461015.500000000, A.D. 2025-Dec-06 00:00:00.0000, -2.268653928350082E+08, -3.089885725384073E+08, -8.495649042115197E+06,
2461022.500000000, A.D. 2025-Dec-13 00:00:00.0000, -2.178396167021179E+08, -3.145329252958311E+08, -8.340825985141352E+06,
2461029.500000000, A.D. 2025-Dec-20 00:00:00.0000, -2.086251531602720E+08, -3.198048863117213E+08, -8.178779082234368E+06,
2461036.500000000, A.D. 2025-Dec-27 00:00:00.0000, -1.992288910938108E+08, -3.247982115218607E+08, -8.009605610442922E+06,
2461043.500000000, A.D. 2026-Jan-03 00:00:00.0000, -1.896579140518902E+08, -3.295067463340667E+08, -7.833408354481921E+06,
2461050.500000000, A.D. 2026-Jan-10 00:00:00.0000, -1.799195048227270E+08, -3.339244295576929E+08, -7.650295753525585E+06,
2461057.500000000, A.D. 2026-Jan-17 00:00:00.0000, -1.700211502306515E+08, -3.380452978948734E+08, -7.460382054112688E+06,
2461064.500000000, A.D. 2026-Jan-24 00:00:00.0000, -1.599705460631284E+08, -3.418634909946591E+08, -7.263787474315569E+06,
2461071.500000000, A.D. 2026-Jan-31 00:00:00.0000, -1.497756020869624E+08, -3.453732571017298E+08, -7.060638381553039E+06,
2461078.500000000, A.D. 2026-Feb-07 00:00:00.0000, -1.394444470722176E+08, -3.485689593815600E+08, -6.851067493814826E+06,
2461085.500000000, A.D. 2026-Feb-14 00:00:00.0000, -1.289854335478246E+08, -3.514450829623686E+08, -6.635214128160626E+06,
2461092.500000000, A.D. 2026-Feb-21 00:00:00.0000, -1.184071418754606E+08, -3.539962421427062E+08, -6.413224484304234E+06,
2461099.500000000, A.D. 2026-Feb-28 00:00:00.0000, -1.077183846977556E+08, -3.562171866373556E+08, -6.185251768936247E+06,
2461106.500000000, A.D. 2026-Mar-07 00:00:00.0000, -9.692821378663582E+07, -3.581028088375742E+08, -5.951456130841956E+06,
2461113.500000000, A.D. 2026-Mar-14 00:00:00.0000, -8.604592647950311E+07, -3.596481544468543E+08, -5.712004851657912E+06,
2461120.500000000, A.D. 2026-Mar-21 00:00:00.0000, -7.508106988170856E+07, -3.608484336253067E+08, -5.467072718366250E+06,
2461127.500000000, A.D. 2026-Mar-28 00:00:00.0000, -6.404344480319589E+07, -3.616990316440918E+08, -5.216842308239266E+06,
2461134.500000000, A.D. 2026-Apr-04 00:00:00.0000, -5.294310998713612E+07, -3.621955200438213E+08, -4.961504208677813E+06,
2461141.500000000, A.D. 2026-Apr-11 00:00:00.0000, -4.179038630606525E+07, -3.623336686836843E+08, -4.701257225271285E+06,
2461148.500000000, A.D. 2026-Apr-18 00:00:00.0000, -3.059586071025043E+07, -3.621094587129701E+08, -4.436308592013210E+06,
2461155.500000000, A.D. 2026-Apr-25 00:00:00.0000, -1.937038982012057E+07, -3.615190964740696E+08, -4.166874185498953E+06,
2461162.500000000, A.D. 2026-May-02 00:00:00.0000, -8.125103063847826E+06, -3.605590283902325E+08, -3.893178747035429E+06,
2461169.500000000, A.D. 2026-May-09 00:00:00.0000, 3.128594837506224E+06, -3.592259569269211E+08, -3.615456127858996E+06,
2461176.500000000, A.D. 2026-May-16 00:00:00.0000, 1.437902249317960E+07, -3.575168575078079E+08, -3.333949578889221E+06,
2461183.500000000, A.D. 2026-May-23 00:00:00.0000, 2.561422170983769E+07, -3.554289953778538E+08, -3.048912004156649E+06,
2461190.500000000, A.D. 2026-May-30 00:00:00.0000, 3.682195661427384E+07, -3.529599421026393E+08, -2.760605959068522E+06,
2461197.500000000, A.D. 2026-Jun-06 00:00:00.0000, 4.798971181191455E+07, -3.501075949794049E+08, -2.469303629954875E+06,
2461204.500000000, A.D. 2026-Jun-13 00:00:00.0000, 5.910469335227727E+07, -3.468701991588553E+08, -2.175287112798244E+06,
2461211.500000000, A.D. 2026-Jun-20 00:00:00.0000, 7.015383211074904E+07, -3.432463695451176E+08, -1.878848703567788E+06,
2461218.500000000, A.D. 2026-Jun-27 00:00:00.0000, 8.112378800337219E+07, -3.392351127976932E+08, -1.580291069334120E+06,
2461225.500000000, A.D. 2026-Jul-04 00:00:00.0000, 9.200095515508080E+07, -3.348358501825968E+08, -1.279927360439733E+06,
2461232.500000000, A.D. 2026-Jul-11 00:00:00.0000, 1.027714684015228E+08, -3.300484413642677E+08, -9.780812944970727E+05,
2461239.500000000, A.D. 2026-Jul-18 00:00:00.0000, 1.134212113491985E+08, -3.248732090579355E+08, -6.750872151493728E+05,
2461246.500000000, A.D. 2026-Jul-25 00:00:00.0000, 1.239358261572499E+08, -3.193109644698604E+08, -3.712901241364926E+05,
2461253.500000000, A.D. 2026-Aug-01 00:00:00.0000, 1.343007252358034E+08, -3.133630334901282E+08, -6.704569143334031E+04,
2461260.500000000, A.D. 2026-Aug-08 00:00:00.0000, 1.445011052281381E+08, -3.070312835800385E+08, 2.372797380934507E+05,
2461267.500000000, A.D. 2026-Aug-15 00:00:00.0000, 1.545219638435148E+08, -3.003181507985298E+08, 5.413091452996731E+05,
2461274.500000000, A.D. 2026-Aug-22 00:00:00.0000, 1.643481189251215E+08, -2.932266656234102E+08, 8.446550197797418E+05,
2461281.500000000, A.D. 2026-Aug-29 00:00:00.0000, 1.739642276003802E+08, -2.857604787906388E+08, 1.146919828357220E+06,
$$EOE